[{"OBJECT_NAME":"STARLINK-2488","OBJECT_ID":"2021-027BF","EPOCH":"2026-03-10T00:00:02.999808","MEAN_MOTION":15.93969953,"ECCENTRICITY":0.00036497,"INCLINATION":53.0379,"RA_OF_ASC_NODE":106.4809,"ARG_OF_PERICENTER":57.7521,"MEAN_ANOMALY":141.1258,"EPHEMERIS_TYPE":0,"CLASSIFICATION_TYPE":"U","NORAD_CAT_ID":48145,"ELEMENT_SET_NO":999,"REV_AT_EPOCH":593,"BSTAR":0.0014129322,"MEAN_MOTION_DOT":0.00529123,"MEAN_MOTION_DDOT":0.00012350147},{"OBJECT_NAME":"STARLINK-30513","OBJECT_ID":"2023-158W","EPOCH":"2026-03-09T22:00:01.999584","MEAN_MOTION":15.96584351,"ECCENTRICITY":0.00220618,"INCLINATION":42.9785,"RA_OF_ASC_NODE":80.0495,"ARG_OF_PERICENTER":112.9089,"MEAN_ANOMALY":327.0615,"EPHEMERIS_TYPE":0,"CLASSIFICATION_TYPE":"U","NORAD_CAT_ID":58071,"ELEMENT_SET_NO":999,"REV_AT_EPOCH":592,"BSTAR":0.0013566397,"MEAN_MOTION_DOT":0.00609636,"MEAN_MOTION_DDOT":0.0001638739}]
